ONEWEB-0593             
1 54659U 22166T   25216.31886083  .00000013  00000+0  73935-6 0  9995
2 54659  87.9267 307.2022 0002177 105.6531 254.4843 13.21826004129687
ONEWEB-0594             
1 54660U 22166U   25216.26208845  .00000086  00000+0  17776-3 0  9993
2 54660  87.9272 307.2292 0002024  97.7020 262.4344 13.21825993129691
ONEWEB-0595             
1 54661U 22166V   25216.24000500  .00000027  00000+0  34450-4 0  9994
2 54661  87.9268 307.2095 0001897  97.3947 262.7403 13.21826195129660
ONEWEB-0596             
1 54662U 22166W   25216.28889400  .00000008  00000+0 -11066-4 0  9991
2 54662  87.9270 307.2145 0001928 100.6589 259.4762 13.21826050129677
ONEWEB-0597             
1 54663U 22166X   25216.26998130  .00000082  00000+0  16592-3 0  9990
2 54663  87.9270 307.2217 0002111 103.3191 256.8178 13.21826208129679
ONEWEB-0600             
1 54664U 22166Y   25216.25262969  .00000001  00000+0 -28888-4 0  9998
2 54664  87.9264 307.2213 0002166 100.0395 260.0984 13.21826364129641
ONEWEB-0601             
1 54665U 22166Z   25216.54751805  .00000015  00000+0  49322-5 0  9994
2 54665  87.9270 307.1774 0002150 107.7340 252.4029 13.21827037129875
ONEWEB-0602             
1 54666U 22166AA  25216.28573389  .00000029  00000+0  38609-4 0  9995
2 54666  87.9270 307.2300 0002361 101.8768 258.2631 13.21827138129689
ONEWEB-0603             
1 54667U 22166AB  25216.29046901  .00000019  00000+0  14102-4 0  9993
2 54667  87.9266 307.1656 0002203 104.9772 255.1606 13.21827587129611
ONEWEB-0604             
1 54668U 22166AC  25216.27786761  .00000044  00000+0  75219-4 0  9991
2 54668  87.9272 307.1907 0002268 101.6521 258.4867 13.21826358129570
ONEWEB-0605             
1 54669U 22166AD  25216.27154798  .00000054  00000+0  98063-4 0  9994
2 54669  87.9270 307.2229 0002123 119.0701 241.0646 13.21826234129644
ONEWEB-0606             
1 54670U 22166AE  25216.29363526  .00000042  00000+0  71390-4 0  9990
2 54670  87.9269 307.2293 0001869  96.1236 264.0111 13.21826412129706
ONEWEB-0607             
1 54671U 22166AF  25216.26052539  .00000040  00000+0  64413-4 0  9993
2 54671  87.9269 307.2003 0002120 103.0188 257.1182 13.21824592129675
ONEWEB-0608             
1 54672U 22166AG  25216.26680750  .00000044  00000+0  75441-4 0  9993
2 54672  87.9262 307.1854 0002346 111.7893 248.3491 13.21827652129687
ONEWEB-0610             
1 54673U 22166AH  25216.55064769 -.00000022  00000+0 -84427-4 0  9994
2 54673  87.9271 307.1629 0002384 112.8946 247.2440 13.21831841129622
ONEWEB-0611             
1 54674U 22166AJ  25216.54436575  .00000011  00000+0 -36918-5 0  9992
2 54674  87.9270 307.1609 0002016  93.3631 266.7734 13.21826784129617
ONEWEB-0612             
1 54675U 22166AK  25216.32990176 -.00000006  00000+0 -47236-4 0  9990
2 54675  87.9271 307.1810 0002120 104.7964 255.3405 13.21826018129579
