[{"OBJECT_NAME":"ONEWEB-0593","OBJECT_ID":"2022-166T","EPOCH":"2025-08-04T07:39:09.575712","MEAN_MOTION":13.21826004,"ECCENTRICITY":0.0002177,"INCLINATION":87.9267,"RA_OF_ASC_NODE":307.2022,"ARG_OF_PERICENTER":105.6531,"MEAN_ANOMALY":254.4843,"EPHEMERIS_TYPE":0,"CLASSIFICATION_TYPE":"U","NORAD_CAT_ID":54659,"ELEMENT_SET_NO":999,"REV_AT_EPOCH":12968,"BSTAR":7.3935e-7,"MEAN_MOTION_DOT":1.3e-7,"MEAN_MOTION_DDOT":0},{"OBJECT_NAME":"ONEWEB-0594","OBJECT_ID":"2022-166U","EPOCH":"2025-08-04T06:17:24.442080","MEAN_MOTION":13.21825993,"ECCENTRICITY":0.0002024,"INCLINATION":87.9272,"RA_OF_ASC_NODE":307.2292,"ARG_OF_PERICENTER":97.702,"MEAN_ANOMALY":262.4344,"EPHEMERIS_TYPE":0,"CLASSIFICATION_TYPE":"U","NORAD_CAT_ID":54660,"ELEMENT_SET_NO":999,"REV_AT_EPOCH":12969,"BSTAR":0.00017776,"MEAN_MOTION_DOT":8.6e-7,"MEAN_MOTION_DDOT":0},{"OBJECT_NAME":"ONEWEB-0595","OBJECT_ID":"2022-166V","EPOCH":"2025-08-04T05:45:36.432000","MEAN_MOTION":13.21826195,"ECCENTRICITY":0.0001897,"INCLINATION":87.9268,"RA_OF_ASC_NODE":307.2095,"ARG_OF_PERICENTER":97.3947,"MEAN_ANOMALY":262.7403,"EPHEMERIS_TYPE":0,"CLASSIFICATION_TYPE":"U","NORAD_CAT_ID":54661,"ELEMENT_SET_NO":999,"REV_AT_EPOCH":12966,"BSTAR":3.445e-5,"MEAN_MOTION_DOT":2.7e-7,"MEAN_MOTION_DDOT":0},{"OBJECT_NAME":"ONEWEB-0596","OBJECT_ID":"2022-166W","EPOCH":"2025-08-04T06:56:00.441600","MEAN_MOTION":13.2182605,"ECCENTRICITY":0.0001928,"INCLINATION":87.927,"RA_OF_ASC_NODE":307.2145,"ARG_OF_PERICENTER":100.6589,"MEAN_ANOMALY":259.4762,"EPHEMERIS_TYPE":0,"CLASSIFICATION_TYPE":"U","NORAD_CAT_ID":54662,"ELEMENT_SET_NO":999,"REV_AT_EPOCH":12967,"BSTAR":-1.1066e-5,"MEAN_MOTION_DOT":8.0e-8,"MEAN_MOTION_DDOT":0},{"OBJECT_NAME":"ONEWEB-0597","OBJECT_ID":"2022-166X","EPOCH":"2025-08-04T06:28:46.384320","MEAN_MOTION":13.21826208,"ECCENTRICITY":0.0002111,"INCLINATION":87.927,"RA_OF_ASC_NODE":307.2217,"ARG_OF_PERICENTER":103.3191,"MEAN_ANOMALY":256.8178,"EPHEMERIS_TYPE":0,"CLASSIFICATION_TYPE":"U","NORAD_CAT_ID":54663,"ELEMENT_SET_NO":999,"REV_AT_EPOCH":12967,"BSTAR":0.00016592,"MEAN_MOTION_DOT":8.2e-7,"MEAN_MOTION_DDOT":0},{"OBJECT_NAME":"ONEWEB-0600","OBJECT_ID":"2022-166Y","EPOCH":"2025-08-04T06:03:47.205216","MEAN_MOTION":13.21826364,"ECCENTRICITY":0.0002166,"INCLINATION":87.9264,"RA_OF_ASC_NODE":307.2213,"ARG_OF_PERICENTER":100.0395,"MEAN_ANOMALY":260.0984,"EPHEMERIS_TYPE":0,"CLASSIFICATION_TYPE":"U","NORAD_CAT_ID":54664,"ELEMENT_SET_NO":999,"REV_AT_EPOCH":12964,"BSTAR":-2.8888e-5,"MEAN_MOTION_DOT":1.0e-8,"MEAN_MOTION_DDOT":0},{"OBJECT_NAME":"ONEWEB-0601","OBJECT_ID":"2022-166Z","EPOCH":"2025-08-04T13:08:25.559520","MEAN_MOTION":13.21827037,"ECCENTRICITY":0.000215,"INCLINATION":87.927,"RA_OF_ASC_NODE":307.1774,"ARG_OF_PERICENTER":107.734,"MEAN_ANOMALY":252.4029,"EPHEMERIS_TYPE":0,"CLASSIFICATION_TYPE":"U","NORAD_CAT_ID":54665,"ELEMENT_SET_NO":999,"REV_AT_EPOCH":12987,"BSTAR":4.9322e-6,"MEAN_MOTION_DOT":1.5e-7,"MEAN_MOTION_DDOT":0},{"OBJECT_NAME":"ONEWEB-0602","OBJECT_ID":"2022-166AA","EPOCH":"2025-08-04T06:51:27.408096","MEAN_MOTION":13.21827138,"ECCENTRICITY":0.0002361,"INCLINATION":87.927,"RA_OF_ASC_NODE":307.23,"ARG_OF_PERICENTER":101.8768,"MEAN_ANOMALY":258.2631,"EPHEMERIS_TYPE":0,"CLASSIFICATION_TYPE":"U","NORAD_CAT_ID":54666,"ELEMENT_SET_NO":999,"REV_AT_EPOCH":12968,"BSTAR":3.8609e-5,"MEAN_MOTION_DOT":2.9e-7,"MEAN_MOTION_DDOT":0},{"OBJECT_NAME":"ONEWEB-0603","OBJECT_ID":"2022-166AB","EPOCH":"2025-08-04T06:58:16.522464","MEAN_MOTION":13.21827587,"ECCENTRICITY":0.0002203,"INCLINATION":87.9266,"RA_OF_ASC_NODE":307.1656,"ARG_OF_PERICENTER":104.9772,"MEAN_ANOMALY":255.1606,"EPHEMERIS_TYPE":0,"CLASSIFICATION_TYPE":"U","NORAD_CAT_ID":54667,"ELEMENT_SET_NO":999,"REV_AT_EPOCH":12961,"BSTAR":1.4102e-5,"MEAN_MOTION_DOT":1.9e-7,"MEAN_MOTION_DDOT":0},{"OBJECT_NAME":"ONEWEB-0604","OBJECT_ID":"2022-166AC","EPOCH":"2025-08-04T06:40:07.761504","MEAN_MOTION":13.21826358,"ECCENTRICITY":0.0002268,"INCLINATION":87.9272,"RA_OF_ASC_NODE":307.1907,"ARG_OF_PERICENTER":101.6521,"MEAN_ANOMALY":258.4867,"EPHEMERIS_TYPE":0,"CLASSIFICATION_TYPE":"U","NORAD_CAT_ID":54668,"ELEMENT_SET_NO":999,"REV_AT_EPOCH":12957,"BSTAR":7.5219e-5,"MEAN_MOTION_DOT":4.4e-7,"MEAN_MOTION_DDOT":0},{"OBJECT_NAME":"ONEWEB-0605","OBJECT_ID":"2022-166AD","EPOCH":"2025-08-04T06:31:01.745472","MEAN_MOTION":13.21826234,"ECCENTRICITY":0.0002123,"INCLINATION":87.927,"RA_OF_ASC_NODE":307.2229,"ARG_OF_PERICENTER":119.0701,"MEAN_ANOMALY":241.0646,"EPHEMERIS_TYPE":0,"CLASSIFICATION_TYPE":"U","NORAD_CAT_ID":54669,"ELEMENT_SET_NO":999,"REV_AT_EPOCH":12964,"BSTAR":9.8063e-5,"MEAN_MOTION_DOT":5.4e-7,"MEAN_MOTION_DDOT":0},{"OBJECT_NAME":"ONEWEB-0606","OBJECT_ID":"2022-166AE","EPOCH":"2025-08-04T07:02:50.086464","MEAN_MOTION":13.21826412,"ECCENTRICITY":0.0001869,"INCLINATION":87.9269,"RA_OF_ASC_NODE":307.2293,"ARG_OF_PERICENTER":96.1236,"MEAN_ANOMALY":264.0111,"EPHEMERIS_TYPE":0,"CLASSIFICATION_TYPE":"U","NORAD_CAT_ID":54670,"ELEMENT_SET_NO":999,"REV_AT_EPOCH":12970,"BSTAR":7.139e-5,"MEAN_MOTION_DOT":4.2e-7,"MEAN_MOTION_DDOT":0},{"OBJECT_NAME":"ONEWEB-0607","OBJECT_ID":"2022-166AF","EPOCH":"2025-08-04T06:15:09.393696","MEAN_MOTION":13.21824592,"ECCENTRICITY":0.000212,"INCLINATION":87.9269,"RA_OF_ASC_NODE":307.2003,"ARG_OF_PERICENTER":103.0188,"MEAN_ANOMALY":257.1182,"EPHEMERIS_TYPE":0,"CLASSIFICATION_TYPE":"U","NORAD_CAT_ID":54671,"ELEMENT_SET_NO":999,"REV_AT_EPOCH":12967,"BSTAR":6.4413e-5,"MEAN_MOTION_DOT":4.0e-7,"MEAN_MOTION_DDOT":0},{"OBJECT_NAME":"ONEWEB-0608","OBJECT_ID":"2022-166AG","EPOCH":"2025-08-04T06:24:12.168000","MEAN_MOTION":13.21827652,"ECCENTRICITY":0.0002346,"INCLINATION":87.9262,"RA_OF_ASC_NODE":307.1854,"ARG_OF_PERICENTER":111.7893,"MEAN_ANOMALY":248.3491,"EPHEMERIS_TYPE":0,"CLASSIFICATION_TYPE":"U","NORAD_CAT_ID":54672,"ELEMENT_SET_NO":999,"REV_AT_EPOCH":12968,"BSTAR":7.5441e-5,"MEAN_MOTION_DOT":4.4e-7,"MEAN_MOTION_DDOT":0},{"OBJECT_NAME":"ONEWEB-0610","OBJECT_ID":"2022-166AH","EPOCH":"2025-08-04T13:12:55.960416","MEAN_MOTION":13.21831841,"ECCENTRICITY":0.0002384,"INCLINATION":87.9271,"RA_OF_ASC_NODE":307.1629,"ARG_OF_PERICENTER":112.8946,"MEAN_ANOMALY":247.244,"EPHEMERIS_TYPE":0,"CLASSIFICATION_TYPE":"U","NORAD_CAT_ID":54673,"ELEMENT_SET_NO":999,"REV_AT_EPOCH":12962,"BSTAR":-8.4427e-5,"MEAN_MOTION_DOT":-2.2e-7,"MEAN_MOTION_DDOT":0},{"OBJECT_NAME":"ONEWEB-0611","OBJECT_ID":"2022-166AJ","EPOCH":"2025-08-04T13:03:53.200800","MEAN_MOTION":13.21826784,"ECCENTRICITY":0.0002016,"INCLINATION":87.927,"RA_OF_ASC_NODE":307.1609,"ARG_OF_PERICENTER":93.3631,"MEAN_ANOMALY":266.7734,"EPHEMERIS_TYPE":0,"CLASSIFICATION_TYPE":"U","NORAD_CAT_ID":54674,"ELEMENT_SET_NO":999,"REV_AT_EPOCH":12961,"BSTAR":-3.6918e-6,"MEAN_MOTION_DOT":1.1e-7,"MEAN_MOTION_DDOT":0},{"OBJECT_NAME":"ONEWEB-0612","OBJECT_ID":"2022-166AK","EPOCH":"2025-08-04T07:55:03.512064","MEAN_MOTION":13.21826018,"ECCENTRICITY":0.000212,"INCLINATION":87.9271,"RA_OF_ASC_NODE":307.181,"ARG_OF_PERICENTER":104.7964,"MEAN_ANOMALY":255.3405,"EPHEMERIS_TYPE":0,"CLASSIFICATION_TYPE":"U","NORAD_CAT_ID":54675,"ELEMENT_SET_NO":999,"REV_AT_EPOCH":12957,"BSTAR":-4.7236e-5,"MEAN_MOTION_DOT":-6.0e-8,"MEAN_MOTION_DDOT":0}]
